NORAD_CAT_ID,OBJECT_NAME,OBJECT_TYPE,EPOCH,MEAN_MOTION,ECCENTRICITY,INCLINATION,RA_OF_ASC_NODE,ARG_OF_PERICENTER,MEAN_ANOMALY,BSTAR,MEAN_MOTION_DOT,MEAN_MOTION_DDOT,TLE_LINE0,TLE_LINE1,TLE_LINE2,SEMIMAJOR_AXIS,PERIOD,APOGEE,PERIGEE,DECAYED
228,DELTA 1 DEB (YO),DEBRIS,2019-12-13 00:06:55,15.01218985,0.0015117000000000002,48.4305,343.3939,188.7751,171.291,1.9600000000000002e-05,-8e-08,0.0,0 DELTA 1 DEB (YO),1   228U 62002C   19347.00481146 -.00000008  00000-0  19600-4 0  9999,2   228  48.4305 343.3939 0015117 188.7751 171.2910 15.01218985107182,6941.273,95.92200000000001,573.631,552.645,0.0
228,DELTA 1 DEB (YO),DEBRIS,2019-12-13 20:52:53,15.01219383,0.0015144,48.4304,339.1392,192.6114,167.4432,1.8684e-05,-2e-07,0.0,0 DELTA 1 DEB (YO),1   228U 62002C   19347.87006052 -.00000020 +00000-0 +18684-4 0  9998,2   228 048.4304 339.1392 0015144 192.6114 167.4432 15.01219383083186,6941.272,95.92200000000001,573.649,552.625,0.0
228,DELTA 1 DEB (YO),DEBRIS,2019-12-14 09:39:37,15.01219622,0.0015164000000000002,48.4304,336.5208,194.9304,165.1174,1.826e-05,-2.5e-07,0.0,0 DELTA 1 DEB (YO),1   228U 62002C   19348.40252138 -.00000025  00000-0  18260-4 0  9991,2   228  48.4304 336.5208 0015164 194.9304 165.1174 15.01219622107395,6941.271,95.92200000000001,573.6619999999998,552.611,0.0
228,DELTA 1 DEB (YO),DEBRIS,2019-12-14 16:03:00,15.0121973,0.0015169,48.4304,335.2117,196.1213,163.923,1.7691e-05,-3.3e-07,0.0,0 DELTA 1 DEB (YO),1   228U 62002C   19348.66875174 -.00000033 +00000-0 +17691-4 0  9996,2   228 048.4304 335.2117 0015169 196.1213 163.9230 15.01219730083301,6941.271,95.92200000000001,573.665,552.607,0.0
228,DELTA 1 DEB (YO),DEBRIS,2019-12-15 08:01:25,15.01220073,0.0015218,48.4303,331.9388,199.0407,160.995,1.8545999999999998e-05,-2.2e-07,0.0,0 DELTA 1 DEB (YO),1   228U 62002C   19349.33432761 -.00000022 +00000-0 +18546-4 0  9990,2   228 048.4303 331.9388 0015218 199.0407 160.9950 15.01220073083404,6941.27,95.92200000000001,573.698,552.572,0.0
228,DELTA 1 DEB (YO),DEBRIS,2019-12-15 22:24:01,15.0122032,0.0015243000000000001,48.4303,328.9931,201.6887,158.3393,1.8527e-05,-2.2e-07,0.0,0 DELTA 1 DEB (YO),1   228U 62002C   19349.93334584 -.00000022  00000-0  18527-4 0  9999,2   228  48.4303 328.9931 0015243 201.6887 158.3393 15.01220320107622,6941.269,95.92200000000001,573.715,552.554,0.0
228,DELTA 1 DEB (YO),DEBRIS,2019-12-16 15:58:17,15.01220705,0.0015277,48.4303,325.3929,204.8946,155.1242,1.9273e-05,-1.2e-07,0.0,0 DELTA 1 DEB (YO),1   228U 62002C   19350.66547916 -.00000012 +00000-0 +19273-4 0  9994,2   228 048.4303 325.3929 0015277 204.8946 155.1242 15.01220705083604,6941.268,95.92200000000001,573.737,552.529,0.0
228,DELTA 1 DEB (YO),DEBRIS,2019-12-17 07:56:43,15.01220941,0.0015314999999999999,48.4303,322.1199,207.7811,152.2296,1.8132000000000002e-05,-2.7e-07,0.0,0 DELTA 1 DEB (YO),1   228U 62002C   19351.33105476 -.00000027 +00000-0 +18132-4 0  9999,2   228 048.4303 322.1199 0015315 207.7811 152.2296 15.01220941083704,6941.267,95.92200000000001,573.763,552.502,0.0
228,DELTA 1 DEB (YO),DEBRIS,2019-12-18 04:42:40,15.012213199999998,0.001533,48.4302,317.8651,211.553,148.4475,1.7075e-05,-4.1e-07,0.0,0 DELTA 1 DEB (YO),1   228U 62002C   19352.19630290 -.00000041  00000-0  17075-4 0  9992,2   228  48.4302 317.8651 0015330 211.5530 148.4475 15.01221320107968,6941.266,95.92200000000001,573.7719999999998,552.49,0.0
228,DELTA 1 DEB (YO),DEBRIS,2019-12-18 07:54:21,15.01221551,0.0015332,48.4302,317.2106,212.125,147.8741,1.9443e-05,-1e-07,0.0,0 DELTA 1 DEB (YO),1   228U 62002C   19352.32941799 -.00000010 +00000-0 +19443-4 0  9993,2   228 048.4302 317.2106 0015332 212.1250 147.8741 15.01221551083851,6941.265,95.92200000000001,573.773,552.488,0.0
228,DELTA 1 DEB (YO),DEBRIS,2019-12-19 04:40:19,15.01222099,0.0015368,48.4303,312.9558,215.8995,144.0897,1.9956e-05,-3e-08,0.0,0 DELTA 1 DEB (YO),1   228U 62002C   19353.19466560 -.00000003 +00000-0 +19956-4 0  9998,2   228 048.4303 312.9558 0015368 215.8995 144.0897 15.01222099083983,6941.264,95.92200000000001,573.7959999999998,552.461,0.0
228,DELTA 1 DEB (YO),DEBRIS,2019-12-20 07:49:38,15.01222595,0.0015394,48.4302,307.392,220.8351,139.142,1.9131e-05,-1.4e-07,0.0,0 DELTA 1 DEB (YO),1   228U 62002C   19354.32614325 -.00000014  00000-0  19131-4 0  9995,2   228  48.4302 307.3920 0015394 220.8351 139.1420 15.01222595108283,6941.262,95.92200000000001,573.813,552.442,0.0
228,DELTA 1 DEB (YO),DEBRIS,2019-12-20 14:13:01,15.01222717,0.0015405,48.4303,306.0829,222.0084,137.9659,1.8744000000000002e-05,-1.9e-07,0.0,0 DELTA 1 DEB (YO),1   228U 62002C   19354.59237322 -.00000019 +00000-0 +18744-4 0  9996,2   228 048.4303 306.0829 0015405 222.0084 137.9659 15.01222717084197,6941.262,95.92200000000001,573.82,552.434,0.0
228,DELTA 1 DEB (YO),DEBRIS,2019-12-21 06:11:26,15.01223209,0.0015423,48.4302,302.8102,224.8567,135.1111,2.0694000000000002e-05,6e-08,0.0,0 DELTA 1 DEB (YO),1   228U 62002C   19355.25794808 +.00000006 +00000-0 +20694-4 0  9999,2   228 048.4302 302.8102 0015423 224.8567 135.1111 15.01223209084291,6941.26,95.92200000000001,573.831,552.42,0.0
228,DELTA 1 DEB (YO),DEBRIS,2019-12-22 06:09:05,15.01223803,0.0015452999999999999,48.4301,297.9009,229.1471,130.8113,2.0213e-05,0.0,0.0,0 DELTA 1 DEB (YO),1   228U 62002C   19356.25631009 +.00000000 +00000-0 +20213-4 0  9994,2   228 048.4301 297.9009 0015453 229.1471 130.8113 15.01223803084446,6941.2580000000025,95.92200000000001,573.85,552.3969999999998,0.0
228,DELTA 1 DEB (YO),DEBRIS,2019-12-23 02:55:02,15.01224307,0.0015482999999999998,48.43,293.6461,232.8914,127.0595,1.9331e-05,-1.1e-07,0.0,0 DELTA 1 DEB (YO),1   228U 62002C   19357.12155686 -.00000011  00000-0  19331-4 0  9995,2   228  48.4300 293.6461 0015483 232.8914 127.0595 15.01224307108704,6941.257,95.92200000000001,573.869,552.375,0.0
228,DELTA 1 DEB (YO),DEBRIS,2019-12-23 20:29:18,15.01224762,0.0015484000000000001,48.43,290.046,236.0537,123.8915,1.9479e-05,-9e-08,0.0,0 DELTA 1 DEB (YO),1   228U 62002C   19357.85368861 -.00000009 +00000-0 +19479-4 0  9996,2   228 048.4300 290.0460 0015484 236.0537 123.8915 15.01224762084687,6941.255,95.92200000000001,573.868,552.373,0.0
228,DELTA 1 DEB (YO),DEBRIS,2019-12-24 17:15:15,15.01225327,0.001549,48.4299,285.7913,239.7906,120.1484,2.0745999999999998e-05,7e-08,0.0,0 DELTA 1 DEB (YO),1   228U 62002C   19358.71893510 +.00000007 +00000-0 +20746-4 0  9992,2   228 048.4299 285.7913 0015490 239.7906 120.1484 15.01225327084819,6941.254,95.92200000000001,573.871,552.367,0.0
228,DELTA 1 DEB (YO),DEBRIS,2019-12-25 06:02:00,15.01225639,0.0015482,48.4298,283.173,242.0778,117.8578,2.1326e-05,1.5e-07,0.0,0 DELTA 1 DEB (YO),1   228U 62002C   19359.25139453  .00000015  00000-0  21326-4 0  9995,2   228  48.4298 283.1730 0015482 242.0778 117.8578 15.01225639109026,6941.253000000002,95.92200000000001,573.864,552.371,0.0
228,DELTA 1 DEB (YO),DEBRIS,2019-12-25 20:24:35,15.01226019,0.0015497999999999998,48.4297,280.2274,244.628,115.304,2.1688000000000006e-05,1.9e-07,0.0,0 DELTA 1 DEB (YO),1   228U 62002C   19359.85041115 +.00000019 +00000-0 +21688-4 0  9993,2   228 048.4297 280.2274 0015498 244.6280 115.3040 15.01226019084986,6941.2519999999995,95.92200000000001,573.874,552.359,0.0
228,DELTA 1 DEB (YO),DEBRIS,2019-12-26 04:23:48,15.012262900000001,0.0015496,48.4297,278.5911,246.0511,113.87899999999999,2.2824e-05,3.4e-07,0.0,0 DELTA 1 DEB (YO),1   228U 62002C   19360.18319818 +.00000034 +00000-0 +22824-4 0  9999,2   228 048.4297 278.5911 0015496 246.0511 113.8790 15.01226290085038,6941.251,95.92200000000001,573.872,552.36,0.0
228,DELTA 1 DEB (YO),DEBRIS,2019-12-27 10:44:48,15.01226944,0.0015511,48.4296,272.3726,251.4684,108.4554,2.0906999999999998e-05,9e-08,0.0,0 DELTA 1 DEB (YO),1   228U 62002C   19361.44778854  .00000009  00000-0  20907-4 0  9990,2   228  48.4296 272.3726 0015511 251.4684 108.4554 15.01226944109358,6941.249,95.92200000000001,573.88,552.347,0.0
228,DELTA 1 DEB (YO),DEBRIS,2019-12-27 18:44:01,15.012271700000001,0.0015517999999999999,48.4296,270.736,252.8872,107.0352,2.1174e-05,1.3e-07,0.0,0 DELTA 1 DEB (YO),1   228U 62002C   19361.78057533 +.00000013 +00000-0 +21174-4 0  9993,2   228 048.4296 270.7360 0015518 252.8872 107.0352 15.01227170085272,6941.248000000001,95.92200000000001,573.884,552.342,0.0
228,DELTA 1 DEB (YO),DEBRIS,2019-12-28 18:41:40,15.01227726,0.0015529,48.4295,265.8268,257.1934,102.7254,2.119e-05,1.3e-07,0.0,0 DELTA 1 DEB (YO),1   228U 62002C   19362.77893580 +.00000013 +00000-0 +21190-4 0  9991,2   228 048.4295 265.8268 0015529 257.1934 102.7254 15.01227726085429,6941.246,95.921,573.89,552.332,0.0
228,DELTA 1 DEB (YO),DEBRIS,2019-12-29 18:39:18,15.01228285,0.0015529,48.4294,260.9175,261.4202,98.4962,2.1791999999999997e-05,2.1e-07,0.0,0 DELTA 1 DEB (YO),1   228U 62002C   19363.77729616  .00000021  00000-0  21792-4 0  9997,2   228  48.4294 260.9175 0015529 261.4202  98.4962 15.01228285109703,6941.245,95.921,573.889,552.331,0.0
228,DELTA 1 DEB (YO),DEBRIS,2019-12-30 18:36:56,15.01228894,0.0015526,48.4293,256.0082,265.6751,94.2398,2.2304000000000002e-05,2.8e-07,0.0,0 DELTA 1 DEB (YO),1   228U 62002C   19364.77565634 +.00000028 +00000-0 +22304-4 0  9993,2   228 048.4293 256.0082 0015526 265.6751 094.2398 15.01228894085725,6941.243,95.921,573.885,552.331,0.0
228,DELTA 1 DEB (YO),DEBRIS,2019-12-31 21:46:16,15.01229506,0.0015523,48.4291,250.4444,270.4915,89.4229,2.0966999999999998e-05,1e-07,0.0,0 DELTA 1 DEB (YO),1   228U 62002C   19365.90713090 +.00000010 +00000-0 +20967-4 0  9994,2   228 048.4291 250.4444 0015523 270.4915 089.4229 15.01229506085894,6941.241,95.921,573.881,552.331,0.0
228,DELTA 1 DEB (YO),DEBRIS,2020-01-01 02:33:47,15.01229621,0.0015515999999999998,48.4291,249.4625,271.3574,88.5572,2.0935999999999997e-05,1e-07,0.0,0 DELTA 1 DEB (YO),1   228U 62002C   20001.10680287  .00000010  00000-0  20936-4 0  9992,2   228  48.4291 249.4625 0015516 271.3574  88.5572 15.01229621110052,6941.24,95.921,573.876,552.335,0.0
